CCSDS_OMM_VERS = 2.0
CREATION_DATE  = 
ORIGINATOR     = 

OBJECT_NAME    = STARLINK-36810
OBJECT_ID      = 2026-035V
CENTER_NAME    = EARTH
REF_FRAME      = TEME
TIME_SYSTEM    = UTC
MEAN_ELEMENT_THEORY = SGP/SGP4

EPOCH          = 2026-03-07T14:00:01.000224
MEAN_MOTION    = 15.93057548
ECCENTRICITY   = .00013562
INCLINATION    = 97.2697
RA_OF_ASC_NODE = 358.7900
ARG_OF_PERICENTER = 89.6673
MEAN_ANOMALY   = 3.2218

EPHEMERIS_TYPE = 0
CLASSIFICATION_TYPE = U
NORAD_CAT_ID   = 67898
ELEMENT_SET_NO = 999
REV_AT_EPOCH   = 341
BSTAR          = -.38826785E-2
MEAN_MOTION_DOT = -.1342842E-1
MEAN_MOTION_DDOT = .52530562E-3

CCSDS_OMM_VERS = 2.0
CREATION_DATE  = 
ORIGINATOR     = 

OBJECT_NAME    = STARLINK-36878
OBJECT_ID      = 2026-035W
CENTER_NAME    = EARTH
REF_FRAME      = TEME
TIME_SYSTEM    = UTC
MEAN_ELEMENT_THEORY = SGP/SGP4

EPOCH          = 2026-03-07T14:00:01.000224
MEAN_MOTION    = 15.93126835
ECCENTRICITY   = .00014762
INCLINATION    = 97.2695
RA_OF_ASC_NODE = 358.7937
ARG_OF_PERICENTER = 94.7274
MEAN_ANOMALY   = 7.0656

EPHEMERIS_TYPE = 0
CLASSIFICATION_TYPE = U
NORAD_CAT_ID   = 67899
ELEMENT_SET_NO = 999
REV_AT_EPOCH   = 341
BSTAR          = -.39384487E-2
MEAN_MOTION_DOT = -.1366822E-1
MEAN_MOTION_DDOT = .54317397E-3

CCSDS_OMM_VERS = 2.0
CREATION_DATE  = 
ORIGINATOR     = 

OBJECT_NAME    = STARLINK-36361
OBJECT_ID      = 2026-035X
CENTER_NAME    = EARTH
REF_FRAME      = TEME
TIME_SYSTEM    = UTC
MEAN_ELEMENT_THEORY = SGP/SGP4

EPOCH          = 2026-03-07T14:00:01.000224
MEAN_MOTION    = 15.93146833
ECCENTRICITY   = .00014334
INCLINATION    = 97.2696
RA_OF_ASC_NODE = 358.7957
ARG_OF_PERICENTER = 94.4163
MEAN_ANOMALY   = 12.1442

EPHEMERIS_TYPE = 0
CLASSIFICATION_TYPE = U
NORAD_CAT_ID   = 67900
ELEMENT_SET_NO = 999
REV_AT_EPOCH   = 341
BSTAR          = -.39383692E-2
MEAN_MOTION_DOT = -.1368195E-1
MEAN_MOTION_DDOT = .54429425E-3

CCSDS_OMM_VERS = 2.0
CREATION_DATE  = 
ORIGINATOR     = 

OBJECT_NAME    = STARLINK-36336
OBJECT_ID      = 2026-035Y
CENTER_NAME    = EARTH
REF_FRAME      = TEME
TIME_SYSTEM    = UTC
MEAN_ELEMENT_THEORY = SGP/SGP4

EPOCH          = 2026-03-07T14:00:01.000224
MEAN_MOTION    = 15.93217307
ECCENTRICITY   = .0001446
INCLINATION    = 97.2706
RA_OF_ASC_NODE = 358.8026
ARG_OF_PERICENTER = 91.1471
MEAN_ANOMALY   = 29.8770

EPHEMERIS_TYPE = 0
CLASSIFICATION_TYPE = U
NORAD_CAT_ID   = 67901
ELEMENT_SET_NO = 999
REV_AT_EPOCH   = 346
BSTAR          = -.39564868E-2
MEAN_MOTION_DOT = -.1379426E-1
MEAN_MOTION_DDOT = .55298719E-3

CCSDS_OMM_VERS = 2.0
CREATION_DATE  = 
ORIGINATOR     = 

OBJECT_NAME    = STARLINK-36876
OBJECT_ID      = 2026-035Z
CENTER_NAME    = EARTH
REF_FRAME      = TEME
TIME_SYSTEM    = UTC
MEAN_ELEMENT_THEORY = SGP/SGP4

EPOCH          = 2026-03-07T14:00:01.000224
MEAN_MOTION    = 15.93185791
ECCENTRICITY   = .00014328
INCLINATION    = 97.2703
RA_OF_ASC_NODE = 358.7988
ARG_OF_PERICENTER = 93.9635
MEAN_ANOMALY   = 16.9088

EPHEMERIS_TYPE = 0
CLASSIFICATION_TYPE = U
NORAD_CAT_ID   = 67902
ELEMENT_SET_NO = 999
REV_AT_EPOCH   = 341
BSTAR          = -.39439112E-2
MEAN_MOTION_DOT = -.1372853E-1
MEAN_MOTION_DDOT = .54794477E-3

CCSDS_OMM_VERS = 2.0
CREATION_DATE  = 
ORIGINATOR     = 

OBJECT_NAME    = STARLINK-36257
OBJECT_ID      = 2026-035AA
CENTER_NAME    = EARTH
REF_FRAME      = TEME
TIME_SYSTEM    = UTC
MEAN_ELEMENT_THEORY = SGP/SGP4

EPOCH          = 2026-03-07T14:00:01.000224
MEAN_MOTION    = 15.93224882
ECCENTRICITY   = .00013009
INCLINATION    = 97.2701
RA_OF_ASC_NODE = 358.7995
ARG_OF_PERICENTER = 88.0205
MEAN_ANOMALY   = 27.3233

EPHEMERIS_TYPE = 0
CLASSIFICATION_TYPE = U
NORAD_CAT_ID   = 67903
ELEMENT_SET_NO = 999
REV_AT_EPOCH   = 346
BSTAR          = -.39691192E-2
MEAN_MOTION_DOT = -.1384299E-1
MEAN_MOTION_DDOT = .55665063E-3

CCSDS_OMM_VERS = 2.0
CREATION_DATE  = 
ORIGINATOR     = 

OBJECT_NAME    = STARLINK-36814
OBJECT_ID      = 2026-036A
CENTER_NAME    = EARTH
REF_FRAME      = TEME
TIME_SYSTEM    = UTC
MEAN_ELEMENT_THEORY = SGP/SGP4

EPOCH          = 2026-03-07T13:34:03.088128
MEAN_MOTION    = 15.82105663
ECCENTRICITY   = .00019948
INCLINATION    = 42.9979
RA_OF_ASC_NODE = 262.8280
ARG_OF_PERICENTER = 256.9761
MEAN_ANOMALY   = 103.0888

EPHEMERIS_TYPE = 0
CLASSIFICATION_TYPE = U
NORAD_CAT_ID   = 67904
ELEMENT_SET_NO = 999
REV_AT_EPOCH   = 333
BSTAR          = .15668645E-2
MEAN_MOTION_DOT = .344296E-2
MEAN_MOTION_DDOT = 0

CCSDS_OMM_VERS = 2.0
CREATION_DATE  = 
ORIGINATOR     = 

OBJECT_NAME    = STARLINK-36729
OBJECT_ID      = 2026-036B
CENTER_NAME    = EARTH
REF_FRAME      = TEME
TIME_SYSTEM    = UTC
MEAN_ELEMENT_THEORY = SGP/SGP4

EPOCH          = 2026-03-07T13:32:58.307136
MEAN_MOTION    = 15.82163785
ECCENTRICITY   = .00012394
INCLINATION    = 42.9982
RA_OF_ASC_NODE = 262.8213
ARG_OF_PERICENTER = 266.5131
MEAN_ANOMALY   = 93.5599

EPHEMERIS_TYPE = 0
CLASSIFICATION_TYPE = U
NORAD_CAT_ID   = 67905
ELEMENT_SET_NO = 999
REV_AT_EPOCH   = 333
BSTAR          = .14835424E-2
MEAN_MOTION_DOT = .326154E-2
MEAN_MOTION_DDOT = 0

CCSDS_OMM_VERS = 2.0
CREATION_DATE  = 
ORIGINATOR     = 

OBJECT_NAME    = STARLINK-36763
OBJECT_ID      = 2026-036C
CENTER_NAME    = EARTH
REF_FRAME      = TEME
TIME_SYSTEM    = UTC
MEAN_ELEMENT_THEORY = SGP/SGP4

EPOCH          = 2026-03-07T13:31:53.782752
MEAN_MOTION    = 15.82096000
ECCENTRICITY   = .0001836
INCLINATION    = 42.9987
RA_OF_ASC_NODE = 262.8155
ARG_OF_PERICENTER = 268.6652
MEAN_ANOMALY   = 91.4010

EPHEMERIS_TYPE = 0
CLASSIFICATION_TYPE = U
NORAD_CAT_ID   = 67906
ELEMENT_SET_NO = 999
REV_AT_EPOCH   = 333
BSTAR          = .19313654E-2
MEAN_MOTION_DOT = .428531E-2
MEAN_MOTION_DDOT = 0

CCSDS_OMM_VERS = 2.0
CREATION_DATE  = 
ORIGINATOR     = 

OBJECT_NAME    = STARLINK-36742
OBJECT_ID      = 2026-036D
CENTER_NAME    = EARTH
REF_FRAME      = TEME
TIME_SYSTEM    = UTC
MEAN_ELEMENT_THEORY = SGP/SGP4

EPOCH          = 2026-03-07T13:30:49.225536
MEAN_MOTION    = 15.82434518
ECCENTRICITY   = .00033521
INCLINATION    = 42.9982
RA_OF_ASC_NODE = 262.8089
ARG_OF_PERICENTER = 259.3770
MEAN_ANOMALY   = 100.6725

EPHEMERIS_TYPE = 0
CLASSIFICATION_TYPE = U
NORAD_CAT_ID   = 67907
ELEMENT_SET_NO = 999
REV_AT_EPOCH   = 333
BSTAR          = .37950039E-2
MEAN_MOTION_DOT = .905124E-2
MEAN_MOTION_DDOT = 0

CCSDS_OMM_VERS = 2.0
CREATION_DATE  = 
ORIGINATOR     = 

OBJECT_NAME    = STARLINK-36827
OBJECT_ID      = 2026-036E
CENTER_NAME    = EARTH
REF_FRAME      = TEME
TIME_SYSTEM    = UTC
MEAN_ELEMENT_THEORY = SGP/SGP4

EPOCH          = 2026-03-07T15:00:39.056256
MEAN_MOTION    = 15.82115310
ECCENTRICITY   = .00015367
INCLINATION    = 42.9986
RA_OF_ASC_NODE = 262.4161
ARG_OF_PERICENTER = 287.1500
MEAN_ANOMALY   = 72.9203

EPHEMERIS_TYPE = 0
CLASSIFICATION_TYPE = U
NORAD_CAT_ID   = 67908
ELEMENT_SET_NO = 999
REV_AT_EPOCH   = 334
BSTAR          = .12961785E-2
MEAN_MOTION_DOT = .282809E-2
MEAN_MOTION_DDOT = 0

CCSDS_OMM_VERS = 2.0
CREATION_DATE  = 
ORIGINATOR     = 

OBJECT_NAME    = STARLINK-36822
OBJECT_ID      = 2026-036F
CENTER_NAME    = EARTH
REF_FRAME      = TEME
TIME_SYSTEM    = UTC
MEAN_ELEMENT_THEORY = SGP/SGP4

EPOCH          = 2026-03-07T14:00:01.000224
MEAN_MOTION    = 15.82000789
ECCENTRICITY   = .00016692
INCLINATION    = 42.9993
RA_OF_ASC_NODE = 262.6650
ARG_OF_PERICENTER = 255.1142
MEAN_ANOMALY   = 229.1160

EPHEMERIS_TYPE = 0
CLASSIFICATION_TYPE = U
NORAD_CAT_ID   = 67909
ELEMENT_SET_NO = 999
REV_AT_EPOCH   = 330
BSTAR          = -.10295277E-3
MEAN_MOTION_DOT = -.22141E-3
MEAN_MOTION_DDOT = 0

