STARLINK-36810          
1 67898U 26035V   26066.58334491 -.01342842  52531-3 -38827-2 0  9996
2 67898  97.2697 358.7900 0001356  89.6673   3.2218 15.93057548  3417
STARLINK-36878          
1 67899U 26035W   26066.58334491 -.01366822  54317-3 -39384-2 0  9994
2 67899  97.2695 358.7937 0001476  94.7274   7.0656 15.93126835  3417
STARLINK-36361          
1 67900U 26035X   26066.58334491 -.01368195  54429-3 -39384-2 0  9996
2 67900  97.2696 358.7957 0001433  94.4163  12.1442 15.93146833  3410
STARLINK-36336          
1 67901U 26035Y   26066.58334491 -.01379426  55299-3 -39565-2 0  9993
2 67901  97.2706 358.8026 0001446  91.1471  29.8770 15.93217307  3460
STARLINK-36876          
1 67902U 26035Z   26066.58334491 -.01372853  54794-3 -39439-2 0  9990
2 67902  97.2703 358.7988 0001432  93.9635  16.9088 15.93185791  3416
STARLINK-36257          
1 67903U 26035AA  26066.58334491 -.01384299  55665-3 -39691-2 0  9996
2 67903  97.2701 358.7995 0001300  88.0205  27.3233 15.93224882  3463
STARLINK-36814          
1 67904U 26036A   26066.56531352  .00344296  00000+0  15669-2 0  9999
2 67904  42.9979 262.8280 0001994 256.9761 103.0888 15.82105663  3339
STARLINK-36729          
1 67905U 26036B   26066.56456374  .00326154  00000+0  14835-2 0  9997
2 67905  42.9982 262.8213 0001239 266.5131  93.5599 15.82163785  3331
STARLINK-36763          
1 67906U 26036C   26066.56381693  .00428531  00000+0  19314-2 0  9998
2 67906  42.9987 262.8155 0001836 268.6652  91.4010 15.82096000  3336
STARLINK-36742          
1 67907U 26036D   26066.56306974  .00905124  00000+0  37950-2 0  9992
2 67907  42.9982 262.8089 0003352 259.3770 100.6725 15.82434518  3337
STARLINK-36827          
1 67908U 26036E   26066.62545204  .00282809  00000+0  12962-2 0  9995
2 67908  42.9986 262.4161 0001536 287.1500  72.9203 15.82115310  3340
STARLINK-36822          
1 67909U 26036F   26066.58334491 -.00022141  00000+0 -10295-3 0  9996
2 67909  42.9993 262.6650 0001669 255.1142 229.1160 15.82000789  3305
